{
  "type": "FeatureCollection",
  "features": [
    {
      "type": "Feature",
      "properties": {
        "block_id": "DEL-0001",
        "block_name": "Central Ridge Reserve Forest Block-1",
        "ward": "Central Ridge Reserve Forest",
        "lat": 28.619729,
        "lon": 77.178974,
        "building_density": 0.003,
        "green_cover": 0.1451,
        "road_density": 0.0022,
        "avg_building_height": 21.0,
        "distance_to_water": 9.48,
        "impervious_surface_fraction": 0.02,
        "lst": 42.8
      },
      "geometry": {
        "type": "Polygon",
        "coordinates": [
          [
            [
              77.176474,
              28.617229
            ],
            [
              77.181474,
              28.617229
            ],
            [
              77.181474,
              28.622229
            ],
            [
              77.176474,
              28.622229
            ],
            [
              77.176474,
              28.617229
            ]
          ]
        ]
      }
    },
    {
      "type": "Feature",
      "properties": {
        "block_id": "DEL-0002",
        "block_name": "Nangal Dewat Block-2",
        "ward": "Nangal Dewat",
        "lat": 28.525917,
        "lon": 77.139411,
        "building_density": 0.0833,
        "green_cover": 0.1468,
        "road_density": 0.0396,
        "avg_building_height": 12.7,
        "distance_to_water": 16.77,
        "impervious_surface_fraction": 0.3604,
        "lst": 45.0
      },
      "geometry": {
        "type": "Polygon",
        "coordinates": [
          [
            [
              77.136911,
              28.523417
            ],
            [
              77.141911,
              28.523417
            ],
            [
              77.141911,
              28.528417
            ],
            [
              77.136911,
              28.528417
            ],
            [
              77.136911,
              28.523417
            ]
          ]
        ]
      }
    },
    {
      "type": "Feature",
      "properties": {
        "block_id": "DEL-0003",
        "block_name": "Unknown Block-3",
        "ward": "Unknown",
        "lat": 28.526683,
        "lon": 77.14827,
        "building_density": 0.2211,
        "green_cover": 0.1487,
        "road_density": 0.0017,
        "avg_building_height": 12.7,
        "distance_to_water": 15.94,
        "impervious_surface_fraction": 0.2333,
        "lst": 44.1
      },
      "geometry": {
        "type": "Polygon",
        "coordinates": [
          [
            [
              77.14577,
              28.524183
            ],
            [
              77.15077,
              28.524183
            ],
            [
              77.15077,
              28.529183
            ],
            [
              77.14577,
              28.529183
            ],
            [
              77.14577,
              28.524183
            ]
          ]
        ]
      }
    },
    {
      "type": "Feature",
      "properties": {
        "block_id": "DEL-0004",
        "block_name": "Unknown Block-4",
        "ward": "Unknown",
        "lat": 28.530504,
        "lon": 77.157475,
        "building_density": 0.1993,
        "green_cover": 0.2012,
        "road_density": 0.0,
        "avg_building_height": 12.7,
        "distance_to_water": 14.95,
        "impervious_surface_fraction": 0.1993,
        "lst": 41.8
      },
      "geometry": {
        "type": "Polygon",
        "coordinates": [
          [
            [
              77.154975,
              28.528004
            ],
            [
              77.159975,
              28.528004
            ],
            [
              77.159975,
              28.533004
            ],
            [
              77.154975,
              28.533004
            ],
            [
              77.154975,
              28.528004
            ]
          ]
        ]
      }
    },
    {
      "type": "Feature",
      "properties": {
        "block_id": "DEL-0005",
        "block_name": "B-5 Block-5",
        "ward": "B-5",
        "lat": 28.526136,
        "lon": 77.164909,
        "building_density": 0.2323,
        "green_cover": 0.1782,
        "road_density": 0.0,
        "avg_building_height": 12.0,
        "distance_to_water": 14.4,
        "impervious_surface_fraction": 0.2323,
        "lst": 42.4
      },
      "geometry": {
        "type": "Polygon",
        "coordinates": [
          [
            [
              77.162409,
              28.523636
            ],
            [
              77.167409,
              28.523636
            ],
            [
              77.167409,
              28.528636
            ],
            [
              77.162409,
              28.528636
            ],
            [
              77.162409,
              28.523636
            ]
          ]
        ]
      }
    },
    {
      "type": "Feature",
      "properties": {
        "block_id": "DEL-0006",
        "block_name": "Unknown Block-6",
        "ward": "Unknown",
        "lat": 28.528961,
        "lon": 77.156375,
        "building_density": 0.298,
        "green_cover": 0.1736,
        "road_density": 0.0,
        "avg_building_height": 12.7,
        "distance_to_water": 15.11,
        "impervious_surface_fraction": 0.298,
        "lst": 42.5
      },
      "geometry": {
        "type": "Polygon",
        "coordinates": [
          [
            [
              77.153875,
              28.526461
            ],
            [
              77.158875,
              28.526461
            ],
            [
              77.158875,
              28.531461
            ],
            [
              77.153875,
              28.531461
            ],
            [
              77.153875,
              28.526461
            ]
          ]
        ]
      }
    },
    {
      "type": "Feature",
      "properties": {
        "block_id": "DEL-0007",
        "block_name": "Unknown Block-7",
        "ward": "Unknown",
        "lat": 28.532357,
        "lon": 77.154218,
        "building_density": 0.2895,
        "green_cover": 0.1628,
        "road_density": 0.0,
        "avg_building_height": 12.7,
        "distance_to_water": 15.17,
        "impervious_surface_fraction": 0.2895,
        "lst": 42.1
      },
      "geometry": {
        "type": "Polygon",
        "coordinates": [
          [
            [
              77.151718,
              28.529857
            ],
            [
              77.156718,
              28.529857
            ],
            [
              77.156718,
              28.534857
            ],
            [
              77.151718,
              28.534857
            ],
            [
              77.151718,
              28.529857
            ]
          ]
        ]
      }
    },
    {
      "type": "Feature",
      "properties": {
        "block_id": "DEL-0008",
        "block_name": "Unknown Block-8",
        "ward": "Unknown",
        "lat": 28.525802,
        "lon": 77.160816,
        "building_density": 0.1686,
        "green_cover": 0.1963,
        "road_density": 0.0,
        "avg_building_height": 12.7,
        "distance_to_water": 14.8,
        "impervious_surface_fraction": 0.1686,
        "lst": 41.8
      },
      "geometry": {
        "type": "Polygon",
        "coordinates": [
          [
            [
              77.158316,
              28.523302
            ],
            [
              77.163316,
              28.523302
            ],
            [
              77.163316,
              28.528302
            ],
            [
              77.158316,
              28.528302
            ],
            [
              77.158316,
              28.523302
            ]
          ]
        ]
      }
    },
    {
      "type": "Feature",
      "properties": {
        "block_id": "DEL-0009",
        "block_name": "Unknown Block-9",
        "ward": "Unknown",
        "lat": 28.522109,
        "lon": 77.159814,
        "building_density": 0.2813,
        "green_cover": 0.1743,
        "road_density": 0.0,
        "avg_building_height": 12.7,
        "distance_to_water": 14.97,
        "impervious_surface_fraction": 0.2813,
        "lst": 41.7
      },
      "geometry": {
        "type": "Polygon",
        "coordinates": [
          [
            [
              77.157314,
              28.519609
            ],
            [
              77.162314,
              28.519609
            ],
            [
              77.162314,
              28.524609
            ],
            [
              77.157314,
              28.524609
            ],
            [
              77.157314,
              28.519609
            ]
          ]
        ]
      }
    },
    {
      "type": "Feature",
      "properties": {
        "block_id": "DEL-0010",
        "block_name": "Unknown Block-10",
        "ward": "Unknown",
        "lat": 28.52753,
        "lon": 77.162496,
        "building_density": 0.177,
        "green_cover": 0.1929,
        "road_density": 0.0,
        "avg_building_height": 12.7,
        "distance_to_water": 14.6,
        "impervious_surface_fraction": 0.177,
        "lst": 42.0
      },
      "geometry": {
        "type": "Polygon",
        "coordinates": [
          [
            [
              77.159996,
              28.52503
            ],
            [
              77.164996,
              28.52503
            ],
            [
              77.164996,
              28.53003
            ],
            [
              77.159996,
              28.53003
            ],
            [
              77.159996,
              28.52503
            ]
          ]
        ]
      }
    },
    {
      "type": "Feature",
      "properties": {
        "block_id": "DEL-0011",
        "block_name": "West End Greens Block-11",
        "ward": "West End Greens",
        "lat": 28.524984,
        "lon": 77.111807,
        "building_density": 0.0464,
        "green_cover": 0.1849,
        "road_density": 0.0041,
        "avg_building_height": 3.0,
        "distance_to_water": 19.27,
        "impervious_surface_fraction": 0.075,
        "lst": 43.9
      },
      "geometry": {
        "type": "Polygon",
        "coordinates": [
          [
            [
              77.109307,
              28.522484
            ],
            [
              77.114307,
              28.522484
            ],
            [
              77.114307,
              28.527484
            ],
            [
              77.109307,
              28.527484
            ],
            [
              77.109307,
              28.522484
            ]
          ]
        ]
      }
    },
    {
      "type": "Feature",
      "properties": {
        "block_id": "DEL-0012",
        "block_name": "Rajouri Garden Block-12",
        "ward": "Rajouri Garden",
        "lat": 28.643343,
        "lon": 77.123771,
        "building_density": 0.2922,
        "green_cover": 0.1007,
        "road_density": 0.0368,
        "avg_building_height": 12.7,
        "distance_to_water": 13.81,
        "impervious_surface_fraction": 0.5501,
        "lst": 43.4
      },
      "geometry": {
        "type": "Polygon",
        "coordinates": [
          [
            [
              77.121271,
              28.640843
            ],
            [
              77.126271,
              28.640843
            ],
            [
              77.126271,
              28.645843
            ],
            [
              77.121271,
              28.645843
            ],
            [
              77.121271,
              28.640843
            ]
          ]
        ]
      }
    },
    {
      "type": "Feature",
      "properties": {
        "block_id": "DEL-0013",
        "block_name": "Rajokri Block-13",
        "ward": "Rajokri",
        "lat": 28.51311,
        "lon": 77.114144,
        "building_density": 0.0233,
        "green_cover": 0.1168,
        "road_density": 0.0298,
        "avg_building_height": 12.7,
        "distance_to_water": 19.54,
        "impervious_surface_fraction": 0.2318,
        "lst": 46.5
      },
      "geometry": {
        "type": "Polygon",
        "coordinates": [
          [
            [
              77.111644,
              28.51061
            ],
            [
              77.116644,
              28.51061
            ],
            [
              77.116644,
              28.51561
            ],
            [
              77.111644,
              28.51561
            ],
            [
              77.111644,
              28.51061
            ]
          ]
        ]
      }
    },
    {
      "type": "Feature",
      "properties": {
        "block_id": "DEL-0014",
        "block_name": "Naraina Vihar Block-14",
        "ward": "Naraina Vihar",
        "lat": 28.62791,
        "lon": 77.139868,
        "building_density": 0.185,
        "green_cover": 0.128,
        "road_density": 0.0357,
        "avg_building_height": 0.0,
        "distance_to_water": 12.91,
        "impervious_surface_fraction": 0.4351,
        "lst": 42.7
      },
      "geometry": {
        "type": "Polygon",
        "coordinates": [
          [
            [
              77.137368,
              28.62541
            ],
            [
              77.142368,
              28.62541
            ],
            [
              77.142368,
              28.63041
            ],
            [
              77.137368,
              28.63041
            ],
            [
              77.137368,
              28.62541
            ]
          ]
        ]
      }
    },
    {
      "type": "Feature",
      "properties": {
        "block_id": "DEL-0015",
        "block_name": "Naraina Block-15",
        "ward": "Naraina",
        "lat": 28.62167,
        "lon": 77.13859,
        "building_density": 0.0788,
        "green_cover": 0.0846,
        "road_density": 0.0227,
        "avg_building_height": 12.7,
        "distance_to_water": 13.18,
        "impervious_surface_fraction": 0.2375,
        "lst": 44.4
      },
      "geometry": {
        "type": "Polygon",
        "coordinates": [
          [
            [
              77.13609,
              28.61917
            ],
            [
              77.14109,
              28.61917
            ],
            [
              77.14109,
              28.62417
            ],
            [
              77.13609,
              28.62417
            ],
            [
              77.13609,
              28.61917
            ]
          ]
        ]
      }
    },
    {
      "type": "Feature",
      "properties": {
        "block_id": "DEL-0016",
        "block_name": "Indrapuri Block-16",
        "ward": "Indrapuri",
        "lat": 28.627847,
        "lon": 77.147409,
        "building_density": 0.3847,
        "green_cover": 0.1002,
        "road_density": 0.0417,
        "avg_building_height": 12.7,
        "distance_to_water": 12.19,
        "impervious_surface_fraction": 0.6768,
        "lst": 42.8
      },
      "geometry": {
        "type": "Polygon",
        "coordinates": [
          [
            [
              77.144909,
              28.625347
            ],
            [
              77.149909,
              28.625347
            ],
            [
              77.149909,
              28.630347
            ],
            [
              77.144909,
              28.630347
            ],
            [
              77.144909,
              28.625347
            ]
          ]
        ]
      }
    },
    {
      "type": "Feature",
      "properties": {
        "block_id": "DEL-0017",
        "block_name": "\u067e\u0631\u06cc\u0633 \u06a9\u0627\u0644\u0648\u0646\u06cc Block-17",
        "ward": "\u067e\u0631\u06cc\u0633 \u06a9\u0627\u0644\u0648\u0646\u06cc",
        "lat": 28.634371,
        "lon": 77.124945,
        "building_density": 0.1,
        "green_cover": 0.1857,
        "road_density": 0.0,
        "avg_building_height": 12.7,
        "distance_to_water": 14.1,
        "impervious_surface_fraction": 0.1,
        "lst": 42.5
      },
      "geometry": {
        "type": "Polygon",
        "coordinates": [
          [
            [
              77.122445,
              28.631871
            ],
            [
              77.127445,
              28.631871
            ],
            [
              77.127445,
              28.636871
            ],
            [
              77.122445,
              28.636871
            ],
            [
              77.122445,
              28.631871
            ]
          ]
        ]
      }
    },
    {
      "type": "Feature",
      "properties": {
        "block_id": "DEL-0018",
        "block_name": "Nauroji Nagar Block-18",
        "ward": "Nauroji Nagar",
        "lat": 28.568388,
        "lon": 77.194174,
        "building_density": 0.2539,
        "green_cover": 0.1002,
        "road_density": 0.0008,
        "avg_building_height": 33.0,
        "distance_to_water": 9.98,
        "impervious_surface_fraction": 0.2595,
        "lst": 42.3
      },
      "geometry": {
        "type": "Polygon",
        "coordinates": [
          [
            [
              77.191674,
              28.565888
            ],
            [
              77.196674,
              28.565888
            ],
            [
              77.196674,
              28.570888
            ],
            [
              77.191674,
              28.570888
            ],
            [
              77.191674,
              28.565888
            ]
          ]
        ]
      }
    },
    {
      "type": "Feature",
      "properties": {
        "block_id": "DEL-0019",
        "block_name": "Unknown Block-19",
        "ward": "Unknown",
        "lat": 28.578964,
        "lon": 77.182906,
        "building_density": 0.1739,
        "green_cover": 0.1978,
        "road_density": 0.0,
        "avg_building_height": 34.0,
        "distance_to_water": 10.5,
        "impervious_surface_fraction": 0.1739,
        "lst": 41.1
      },
      "geometry": {
        "type": "Polygon",
        "coordinates": [
          [
            [
              77.180406,
              28.576464
            ],
            [
              77.185406,
              28.576464
            ],
            [
              77.185406,
              28.581464
            ],
            [
              77.180406,
              28.581464
            ],
            [
              77.180406,
              28.576464
            ]
          ]
        ]
      }
    },
    {
      "type": "Feature",
      "properties": {
        "block_id": "DEL-0020",
        "block_name": "Ramakrishna Puram Block-20",
        "ward": "Ramakrishna Puram",
        "lat": 28.565571,
        "lon": 77.17695,
        "building_density": 0.1394,
        "green_cover": 0.1862,
        "road_density": 0.0366,
        "avg_building_height": 24.8,
        "distance_to_water": 11.66,
        "impervious_surface_fraction": 0.3956,
        "lst": 41.9
      },
      "geometry": {
        "type": "Polygon",
        "coordinates": [
          [
            [
              77.17445,
              28.563071
            ],
            [
              77.17945,
              28.563071
            ],
            [
              77.17945,
              28.568071
            ],
            [
              77.17445,
              28.568071
            ],
            [
              77.17445,
              28.563071
            ]
          ]
        ]
      }
    },
    {
      "type": "Feature",
      "properties": {
        "block_id": "DEL-0021",
        "block_name": "West End Block-21",
        "ward": "West End",
        "lat": 28.57461,
        "lon": 77.163012,
        "building_density": 0.2662,
        "green_cover": 0.1779,
        "road_density": 0.0089,
        "avg_building_height": 12.7,
        "distance_to_water": 12.47,
        "impervious_surface_fraction": 0.3288,
        "lst": 40.8
      },
      "geometry": {
        "type": "Polygon",
        "coordinates": [
          [
            [
              77.160512,
              28.57211
            ],
            [
              77.165512,
              28.57211
            ],
            [
              77.165512,
              28.57711
            ],
            [
              77.160512,
              28.57711
            ],
            [
              77.160512,
              28.57211
            ]
          ]
        ]
      }
    },
    {
      "type": "Feature",
      "properties": {
        "block_id": "DEL-0022",
        "block_name": "Anand Niketan Block-22",
        "ward": "Anand Niketan",
        "lat": 28.578483,
        "lon": 77.164408,
        "building_density": 0.3693,
        "green_cover": 0.1539,
        "road_density": 0.0337,
        "avg_building_height": 12.7,
        "distance_to_water": 12.17,
        "impervious_surface_fraction": 0.6051,
        "lst": 41.1
      },
      "geometry": {
        "type": "Polygon",
        "coordinates": [
          [
            [
              77.161908,
              28.575983
            ],
            [
              77.166908,
              28.575983
            ],
            [
              77.166908,
              28.580983
            ],
            [
              77.161908,
              28.580983
            ],
            [
              77.161908,
              28.575983
            ]
          ]
        ]
      }
    },
    {
      "type": "Feature",
      "properties": {
        "block_id": "DEL-0023",
        "block_name": "Shantiniketan Block-23",
        "ward": "Shantiniketan",
        "lat": 28.577321,
        "lon": 77.16878,
        "building_density": 0.2598,
        "green_cover": 0.177,
        "road_density": 0.0028,
        "avg_building_height": 12.7,
        "distance_to_water": 11.83,
        "impervious_surface_fraction": 0.2796,
        "lst": 40.9
      },
      "geometry": {
        "type": "Polygon",
        "coordinates": [
          [
            [
              77.16628,
              28.574821
            ],
            [
              77.17128,
              28.574821
            ],
            [
              77.17128,
              28.579821
            ],
            [
              77.16628,
              28.579821
            ],
            [
              77.16628,
              28.574821
            ]
          ]
        ]
      }
    },
    {
      "type": "Feature",
      "properties": {
        "block_id": "DEL-0024",
        "block_name": "Green Park Extension Block-24",
        "ward": "Green Park Extension",
        "lat": 28.560953,
        "lon": 77.204178,
        "building_density": 0.3359,
        "green_cover": 0.1389,
        "road_density": 0.0394,
        "avg_building_height": 14.8,
        "distance_to_water": 9.42,
        "impervious_surface_fraction": 0.6116,
        "lst": 41.2
      },
      "geometry": {
        "type": "Polygon",
        "coordinates": [
          [
            [
              77.201678,
              28.558453
            ],
            [
              77.206678,
              28.558453
            ],
            [
              77.206678,
              28.563453
            ],
            [
              77.201678,
              28.563453
            ],
            [
              77.201678,
              28.558453
            ]
          ]
        ]
      }
    },
    {
      "type": "Feature",
      "properties": {
        "block_id": "DEL-0025",
        "block_name": "Green Park Block-25",
        "ward": "Green Park",
        "lat": 28.556083,
        "lon": 77.203092,
        "building_density": 0.5023,
        "green_cover": 0.1332,
        "road_density": 0.0312,
        "avg_building_height": 14.3,
        "distance_to_water": 9.78,
        "impervious_surface_fraction": 0.7204,
        "lst": 41.2
      },
      "geometry": {
        "type": "Polygon",
        "coordinates": [
          [
            [
              77.200592,
              28.553583
            ],
            [
              77.205592,
              28.553583
            ],
            [
              77.205592,
              28.558583
            ],
            [
              77.200592,
              28.558583
            ],
            [
              77.200592,
              28.553583
            ]
          ]
        ]
      }
    },
    {
      "type": "Feature",
      "properties": {
        "block_id": "DEL-0026",
        "block_name": "Safdarjung Enclave Block-26",
        "ward": "Safdarjung Enclave",
        "lat": 28.563946,
        "lon": 77.194591,
        "building_density": 0.2533,
        "green_cover": 0.1408,
        "road_density": 0.0309,
        "avg_building_height": 13.5,
        "distance_to_water": 10.13,
        "impervious_surface_fraction": 0.4695,
        "lst": 41.4
      },
      "geometry": {
        "type": "Polygon",
        "coordinates": [
          [
            [
              77.192091,
              28.561446
            ],
            [
              77.197091,
              28.561446
            ],
            [
              77.197091,
              28.566446
            ],
            [
              77.192091,
              28.566446
            ],
            [
              77.192091,
              28.561446
            ]
          ]
        ]
      }
    },
    {
      "type": "Feature",
      "properties": {
        "block_id": "DEL-0027",
        "block_name": "North Moti Bagh Block-27",
        "ward": "North Moti Bagh",
        "lat": 28.583096,
        "lon": 77.177438,
        "building_density": 0.1798,
        "green_cover": 0.198,
        "road_density": 0.0347,
        "avg_building_height": 12.7,
        "distance_to_water": 10.8,
        "impervious_surface_fraction": 0.4228,
        "lst": 41.1
      },
      "geometry": {
        "type": "Polygon",
        "coordinates": [
          [
            [
              77.174938,
              28.580596
            ],
            [
              77.179938,
              28.580596
            ],
            [
              77.179938,
              28.585596
            ],
            [
              77.174938,
              28.585596
            ],
            [
              77.174938,
              28.580596
            ]
          ]
        ]
      }
    },
    {
      "type": "Feature",
      "properties": {
        "block_id": "DEL-0028",
        "block_name": "Satya Niketan Block-28",
        "ward": "Satya Niketan",
        "lat": 28.587679,
        "lon": 77.168861,
        "building_density": 0.6253,
        "green_cover": 0.0877,
        "road_density": 0.0568,
        "avg_building_height": 12.7,
        "distance_to_water": 11.41,
        "impervious_surface_fraction": 0.95,
        "lst": 42.5
      },
      "geometry": {
        "type": "Polygon",
        "coordinates": [
          [
            [
              77.166361,
              28.585179
            ],
            [
              77.171361,
              28.585179
            ],
            [
              77.171361,
              28.590179
            ],
            [
              77.166361,
              28.590179
            ],
            [
              77.166361,
              28.585179
            ]
          ]
        ]
      }
    },
    {
      "type": "Feature",
      "properties": {
        "block_id": "DEL-0029",
        "block_name": "Arakpur Bagh Block-29",
        "ward": "Arakpur Bagh",
        "lat": 28.586072,
        "lon": 77.170181,
        "building_density": 0.1754,
        "green_cover": 0.0895,
        "road_density": 0.0,
        "avg_building_height": 12.7,
        "distance_to_water": 11.35,
        "impervious_surface_fraction": 0.1754,
        "lst": 42.5
      },
      "geometry": {
        "type": "Polygon",
        "coordinates": [
          [
            [
              77.167681,
              28.583572
            ],
            [
              77.172681,
              28.583572
            ],
            [
              77.172681,
              28.588572
            ],
            [
              77.167681,
              28.588572
            ],
            [
              77.167681,
              28.583572
            ]
          ]
        ]
      }
    },
    {
      "type": "Feature",
      "properties": {
        "block_id": "DEL-0030",
        "block_name": "South Moti Bagh Block-30",
        "ward": "South Moti Bagh",
        "lat": 28.582336,
        "lon": 77.16971,
        "building_density": 0.1715,
        "green_cover": 0.1878,
        "road_density": 0.0277,
        "avg_building_height": 4.1,
        "distance_to_water": 11.53,
        "impervious_surface_fraction": 0.3651,
        "lst": 41.5
      },
      "geometry": {
        "type": "Polygon",
        "coordinates": [
          [
            [
              77.16721,
              28.579836
            ],
            [
              77.17221,
              28.579836
            ],
            [
              77.17221,
              28.584836
            ],
            [
              77.16721,
              28.584836
            ],
            [
              77.16721,
              28.579836
            ]
          ]
        ]
      }
    },
    {
      "type": "Feature",
      "properties": {
        "block_id": "DEL-0031",
        "block_name": "Ware Housing Scheme Block 2 Block-31",
        "ward": "Ware Housing Scheme Block 2",
        "lat": 28.642114,
        "lon": 77.138731,
        "building_density": 0.1654,
        "green_cover": 0.117,
        "road_density": 0.0,
        "avg_building_height": 12.7,
        "distance_to_water": 12.54,
        "impervious_surface_fraction": 0.1654,
        "lst": 45.0
      },
      "geometry": {
        "type": "Polygon",
        "coordinates": [
          [
            [
              77.136231,
              28.639614
            ],
            [
              77.141231,
              28.639614
            ],
            [
              77.141231,
              28.644614
            ],
            [
              77.136231,
              28.644614
            ],
            [
              77.136231,
              28.639614
            ]
          ]
        ]
      }
    },
    {
      "type": "Feature",
      "properties": {
        "block_id": "DEL-0032",
        "block_name": "Ware Housing Scheme Block 1 Block-32",
        "ward": "Ware Housing Scheme Block 1",
        "lat": 28.63539,
        "lon": 77.133457,
        "building_density": 0.1319,
        "green_cover": 0.1025,
        "road_density": 0.0,
        "avg_building_height": 12.7,
        "distance_to_water": 13.29,
        "impervious_surface_fraction": 0.1319,
        "lst": 44.9
      },
      "geometry": {
        "type": "Polygon",
        "coordinates": [
          [
            [
              77.130957,
              28.63289
            ],
            [
              77.135957,
              28.63289
            ],
            [
              77.135957,
              28.63789
            ],
            [
              77.130957,
              28.63789
            ],
            [
              77.130957,
              28.63289
            ]
          ]
        ]
      }
    },
    {
      "type": "Feature",
      "properties": {
        "block_id": "DEL-0033",
        "block_name": "Mansarovar Garden Block-33",
        "ward": "Mansarovar Garden",
        "lat": 28.643466,
        "lon": 77.132755,
        "building_density": 0.0,
        "green_cover": 0.0997,
        "road_density": 0.0504,
        "avg_building_height": 12.7,
        "distance_to_water": 13.03,
        "impervious_surface_fraction": 0.3529,
        "lst": 43.5
      },
      "geometry": {
        "type": "Polygon",
        "coordinates": [
          [
            [
              77.130255,
              28.640966
            ],
            [
              77.135255,
              28.640966
            ],
            [
              77.135255,
              28.645966
            ],
            [
              77.130255,
              28.645966
            ],
            [
              77.130255,
              28.640966
            ]
          ]
        ]
      }
    },
    {
      "type": "Feature",
      "properties": {
        "block_id": "DEL-0034",
        "block_name": "Rajouri Apartments Block-34",
        "ward": "Rajouri Apartments",
        "lat": 28.636929,
        "lon": 77.125867,
        "building_density": 0.3272,
        "green_cover": 0.1389,
        "road_density": 0.0,
        "avg_building_height": 12.7,
        "distance_to_water": 13.91,
        "impervious_surface_fraction": 0.3272,
        "lst": 42.3
      },
      "geometry": {
        "type": "Polygon",
        "coordinates": [
          [
            [
              77.123367,
              28.634429
            ],
            [
              77.128367,
              28.634429
            ],
            [
              77.128367,
              28.639429
            ],
            [
              77.123367,
              28.639429
            ],
            [
              77.123367,
              28.634429
            ]
          ]
        ]
      }
    },
    {
      "type": "Feature",
      "properties": {
        "block_id": "DEL-0035",
        "block_name": "Mayapuri Industrial Area 1 Block-35",
        "ward": "Mayapuri Industrial Area 1",
        "lat": 28.629228,
        "lon": 77.126634,
        "building_density": 0.2844,
        "green_cover": 0.1093,
        "road_density": 0.016,
        "avg_building_height": 12.7,
        "distance_to_water": 14.16,
        "impervious_surface_fraction": 0.3963,
        "lst": 45.5
      },
      "geometry": {
        "type": "Polygon",
        "coordinates": [
          [
            [
              77.124134,
              28.626728
            ],
            [
              77.129134,
              28.626728
            ],
            [
              77.129134,
              28.631728
            ],
            [
              77.124134,
              28.631728
            ],
            [
              77.124134,
              28.626728
            ]
          ]
        ]
      }
    },
    {
      "type": "Feature",
      "properties": {
        "block_id": "DEL-0036",
        "block_name": "Naraina Indl Area - I Block-36",
        "ward": "Naraina Indl Area - I",
        "lat": 28.632438,
        "lon": 77.136642,
        "building_density": 0.3891,
        "green_cover": 0.1071,
        "road_density": 0.0,
        "avg_building_height": 12.7,
        "distance_to_water": 13.13,
        "impervious_surface_fraction": 0.3891,
        "lst": 44.5
      },
      "geometry": {
        "type": "Polygon",
        "coordinates": [
          [
            [
              77.134142,
              28.629938
            ],
            [
              77.139142,
              28.629938
            ],
            [
              77.139142,
              28.634938
            ],
            [
              77.134142,
              28.634938
            ],
            [
              77.134142,
              28.629938
            ]
          ]
        ]
      }
    },
    {
      "type": "Feature",
      "properties": {
        "block_id": "DEL-0037",
        "block_name": "Naraina Loha Mandi Block-37",
        "ward": "Naraina Loha Mandi",
        "lat": 28.639356,
        "lon": 77.141618,
        "building_density": 0.1929,
        "green_cover": 0.1039,
        "road_density": 0.0221,
        "avg_building_height": 3.0,
        "distance_to_water": 12.38,
        "impervious_surface_fraction": 0.3478,
        "lst": 44.9
      },
      "geometry": {
        "type": "Polygon",
        "coordinates": [
          [
            [
              77.139118,
              28.636856
            ],
            [
              77.144118,
              28.636856
            ],
            [
              77.144118,
              28.641856
            ],
            [
              77.139118,
              28.641856
            ],
            [
              77.139118,
              28.636856
            ]
          ]
        ]
      }
    },
    {
      "type": "Feature",
      "properties": {
        "block_id": "DEL-0038",
        "block_name": "Unknown Block-38",
        "ward": "Unknown",
        "lat": 28.618581,
        "lon": 77.117035,
        "building_density": 0.079,
        "green_cover": 0.0907,
        "road_density": 0.0,
        "avg_building_height": 10.5,
        "distance_to_water": 15.31,
        "impervious_surface_fraction": 0.079,
        "lst": 46.0
      },
      "geometry": {
        "type": "Polygon",
        "coordinates": [
          [
            [
              77.114535,
              28.616081
            ],
            [
              77.119535,
              28.616081
            ],
            [
              77.119535,
              28.621081
            ],
            [
              77.114535,
              28.621081
            ],
            [
              77.114535,
              28.616081
            ]
          ]
        ]
      }
    },
    {
      "type": "Feature",
      "properties": {
        "block_id": "DEL-0039",
        "block_name": "Khajan Basti Block-39",
        "ward": "Khajan Basti",
        "lat": 28.614843,
        "lon": 77.11502,
        "building_density": 0.0,
        "green_cover": 0.0794,
        "road_density": 0.049,
        "avg_building_height": 12.7,
        "distance_to_water": 15.6,
        "impervious_surface_fraction": 0.3429,
        "lst": 45.2
      },
      "geometry": {
        "type": "Polygon",
        "coordinates": [
          [
            [
              77.11252,
              28.612343
            ],
            [
              77.11752,
              28.612343
            ],
            [
              77.11752,
              28.617343
            ],
            [
              77.11252,
              28.617343
            ],
            [
              77.11252,
              28.612343
            ]
          ]
        ]
      }
    },
    {
      "type": "Feature",
      "properties": {
        "block_id": "DEL-0040",
        "block_name": "Aradhna Enclave Block-40",
        "ward": "Aradhna Enclave",
        "lat": 28.57513,
        "lon": 77.179117,
        "building_density": 0.232,
        "green_cover": 0.1785,
        "road_density": 0.0,
        "avg_building_height": 12.7,
        "distance_to_water": 11.02,
        "impervious_surface_fraction": 0.232,
        "lst": 41.8
      },
      "geometry": {
        "type": "Polygon",
        "coordinates": [
          [
            [
              77.176617,
              28.57263
            ],
            [
              77.181617,
              28.57263
            ],
            [
              77.181617,
              28.57763
            ],
            [
              77.176617,
              28.57763
            ],
            [
              77.176617,
              28.57263
            ]
          ]
        ]
      }
    },
    {
      "type": "Feature",
      "properties": {
        "block_id": "DEL-0041",
        "block_name": "Netaji Nagar Block-41",
        "ward": "Netaji Nagar",
        "lat": 28.574556,
        "lon": 77.186449,
        "building_density": 0.1093,
        "green_cover": 0.1651,
        "road_density": 0.0138,
        "avg_building_height": 21.0,
        "distance_to_water": 10.42,
        "impervious_surface_fraction": 0.206,
        "lst": 42.8
      },
      "geometry": {
        "type": "Polygon",
        "coordinates": [
          [
            [
              77.183949,
              28.572056
            ],
            [
              77.188949,
              28.572056
            ],
            [
              77.188949,
              28.577056
            ],
            [
              77.183949,
              28.577056
            ],
            [
              77.183949,
              28.572056
            ]
          ]
        ]
      }
    },
    {
      "type": "Feature",
      "properties": {
        "block_id": "DEL-0042",
        "block_name": "Unknown Block-42",
        "ward": "Unknown",
        "lat": 28.578831,
        "lon": 77.200986,
        "building_density": 0.567,
        "green_cover": 0.0946,
        "road_density": 0.0061,
        "avg_building_height": 12.7,
        "distance_to_water": 8.96,
        "impervious_surface_fraction": 0.6097,
        "lst": 42.3
      },
      "geometry": {
        "type": "Polygon",
        "coordinates": [
          [
            [
              77.198486,
              28.576331
            ],
            [
              77.203486,
              28.576331
            ],
            [
              77.203486,
              28.581331
            ],
            [
              77.198486,
              28.581331
            ],
            [
              77.198486,
              28.576331
            ]
          ]
        ]
      }
    },
    {
      "type": "Feature",
      "properties": {
        "block_id": "DEL-0043",
        "block_name": "Sarojini Nagar Block-43",
        "ward": "Sarojini Nagar",
        "lat": 28.57592,
        "lon": 77.196308,
        "building_density": 0.1002,
        "green_cover": 0.1519,
        "road_density": 0.0242,
        "avg_building_height": 13.9,
        "distance_to_water": 9.51,
        "impervious_surface_fraction": 0.2697,
        "lst": 41.9
      },
      "geometry": {
        "type": "Polygon",
        "coordinates": [
          [
            [
              77.193808,
              28.57342
            ],
            [
              77.198808,
              28.57342
            ],
            [
              77.198808,
              28.57842
            ],
            [
              77.193808,
              28.57842
            ],
            [
              77.193808,
              28.57342
            ]
          ]
        ]
      }
    },
    {
      "type": "Feature",
      "properties": {
        "block_id": "DEL-0044",
        "block_name": "Laxmi Bai Nagar Block-44",
        "ward": "Laxmi Bai Nagar",
        "lat": 28.577211,
        "lon": 77.206161,
        "building_density": 0.2198,
        "green_cover": 0.178,
        "road_density": 0.0231,
        "avg_building_height": 12.7,
        "distance_to_water": 8.55,
        "impervious_surface_fraction": 0.3815,
        "lst": 42.2
      },
      "geometry": {
        "type": "Polygon",
        "coordinates": [
          [
            [
              77.203661,
              28.574711
            ],
            [
              77.208661,
              28.574711
            ],
            [
              77.208661,
              28.579711
            ],
            [
              77.203661,
              28.579711
            ],
            [
              77.203661,
              28.574711
            ]
          ]
        ]
      }
    },
    {
      "type": "Feature",
      "properties": {
        "block_id": "DEL-0045",
        "block_name": "Budh Nagar Block-45",
        "ward": "Budh Nagar",
        "lat": 28.633132,
        "lon": 77.144064,
        "building_density": 0.0675,
        "green_cover": 0.093,
        "road_density": 0.0531,
        "avg_building_height": 12.7,
        "distance_to_water": 12.41,
        "impervious_surface_fraction": 0.4391,
        "lst": 42.9
      },
      "geometry": {
        "type": "Polygon",
        "coordinates": [
          [
            [
              77.141564,
              28.630632
            ],
            [
              77.146564,
              28.630632
            ],
            [
              77.146564,
              28.635632
            ],
            [
              77.141564,
              28.635632
            ],
            [
              77.141564,
              28.630632
            ]
          ]
        ]
      }
    },
    {
      "type": "Feature",
      "properties": {
        "block_id": "DEL-0046",
        "block_name": "IARI Colony Block-46",
        "ward": "IARI Colony",
        "lat": 28.635016,
        "lon": 77.146424,
        "building_density": 0.2624,
        "green_cover": 0.139,
        "road_density": 0.0309,
        "avg_building_height": 12.7,
        "distance_to_water": 12.14,
        "impervious_surface_fraction": 0.4785,
        "lst": 44.0
      },
      "geometry": {
        "type": "Polygon",
        "coordinates": [
          [
            [
              77.143924,
              28.632516
            ],
            [
              77.148924,
              28.632516
            ],
            [
              77.148924,
              28.637516
            ],
            [
              77.143924,
              28.637516
            ],
            [
              77.143924,
              28.632516
            ]
          ]
        ]
      }
    },
    {
      "type": "Feature",
      "properties": {
        "block_id": "DEL-0047",
        "block_name": "Krishi Kunj Block-47",
        "ward": "Krishi Kunj",
        "lat": 28.638241,
        "lon": 77.144558,
        "building_density": 0.0974,
        "green_cover": 0.1383,
        "road_density": 0.0182,
        "avg_building_height": 12.7,
        "distance_to_water": 12.16,
        "impervious_surface_fraction": 0.2245,
        "lst": 46.0
      },
      "geometry": {
        "type": "Polygon",
        "coordinates": [
          [
            [
              77.142058,
              28.635741
            ],
            [
              77.147058,
              28.635741
            ],
            [
              77.147058,
              28.640741
            ],
            [
              77.142058,
              28.640741
            ],
            [
              77.142058,
              28.635741
            ]
          ]
        ]
      }
    },
    {
      "type": "Feature",
      "properties": {
        "block_id": "DEL-0048",
        "block_name": "Sadh Nagar II Block-48",
        "ward": "Sadh Nagar II",
        "lat": 28.590773,
        "lon": 77.09319,
        "building_density": 0.2744,
        "green_cover": 0.0632,
        "road_density": 0.0532,
        "avg_building_height": 6.0,
        "distance_to_water": 18.44,
        "impervious_surface_fraction": 0.6465,
        "lst": 44.3
      },
      "geometry": {
        "type": "Polygon",
        "coordinates": [
          [
            [
              77.09069,
              28.588273
            ],
            [
              77.09569,
              28.588273
            ],
            [
              77.09569,
              28.593273
            ],
            [
              77.09069,
              28.593273
            ],
            [
              77.09069,
              28.588273
            ]
          ]
        ]
      }
    },
    {
      "type": "Feature",
      "properties": {
        "block_id": "DEL-0049",
        "block_name": "Sadh Nagar I Block-49",
        "ward": "Sadh Nagar I",
        "lat": 28.586676,
        "lon": 77.09092,
        "building_density": 0.2205,
        "green_cover": 0.0642,
        "road_density": 0.0567,
        "avg_building_height": 12.7,
        "distance_to_water": 18.8,
        "impervious_surface_fraction": 0.6173,
        "lst": 45.0
      },
      "geometry": {
        "type": "Polygon",
        "coordinates": [
          [
            [
              77.08842,
              28.584176
            ],
            [
              77.09342,
              28.584176
            ],
            [
              77.09342,
              28.589176
            ],
            [
              77.08842,
              28.589176
            ],
            [
              77.08842,
              28.584176
            ]
          ]
        ]
      }
    },
    {
      "type": "Feature",
      "properties": {
        "block_id": "DEL-0050",
        "block_name": "Kidwai Nagar West Block-50",
        "ward": "Kidwai Nagar West",
        "lat": 28.571553,
        "lon": 77.204435,
        "building_density": 0.1028,
        "green_cover": 0.1883,
        "road_density": 0.0294,
        "avg_building_height": 5.9,
        "distance_to_water": 8.92,
        "impervious_surface_fraction": 0.3088,
        "lst": 41.5
      },
      "geometry": {
        "type": "Polygon",
        "coordinates": [
          [
            [
              77.201935,
              28.569053
            ],
            [
              77.206935,
              28.569053
            ],
            [
              77.206935,
              28.574053
            ],
            [
              77.201935,
              28.574053
            ],
            [
              77.201935,
              28.569053
            ]
          ]
        ]
      }
    },
    {
      "type": "Feature",
      "properties": {
        "block_id": "DEL-0051",
        "block_name": "Masoodpur Block-51",
        "ward": "Masoodpur",
        "lat": 28.526687,
        "lon": 77.153765,
        "building_density": 0.2269,
        "green_cover": 0.098,
        "road_density": 0.0108,
        "avg_building_height": 12.7,
        "distance_to_water": 15.44,
        "impervious_surface_fraction": 0.3022,
        "lst": 44.0
      },
      "geometry": {
        "type": "Polygon",
        "coordinates": [
          [
            [
              77.151265,
              28.524187
            ],
            [
              77.156265,
              28.524187
            ],
            [
              77.156265,
              28.529187
            ],
            [
              77.151265,
              28.529187
            ],
            [
              77.151265,
              28.524187
            ]
          ]
        ]
      }
    },
    {
      "type": "Feature",
      "properties": {
        "block_id": "DEL-0052",
        "block_name": "Unknown Block-52",
        "ward": "Unknown",
        "lat": 28.538278,
        "lon": 77.129719,
        "building_density": 0.3569,
        "green_cover": 0.1167,
        "road_density": 0.0,
        "avg_building_height": 12.7,
        "distance_to_water": 17.07,
        "impervious_surface_fraction": 0.3569,
        "lst": 44.2
      },
      "geometry": {
        "type": "Polygon",
        "coordinates": [
          [
            [
              77.127219,
              28.535778
            ],
            [
              77.132219,
              28.535778
            ],
            [
              77.132219,
              28.540778
            ],
            [
              77.127219,
              28.540778
            ],
            [
              77.127219,
              28.535778
            ]
          ]
        ]
      }
    },
    {
      "type": "Feature",
      "properties": {
        "block_id": "DEL-0053",
        "block_name": "Unknown Block-53",
        "ward": "Unknown",
        "lat": 28.530253,
        "lon": 77.151918,
        "building_density": 0.2427,
        "green_cover": 0.1615,
        "road_density": 0.0,
        "avg_building_height": 12.7,
        "distance_to_water": 15.46,
        "impervious_surface_fraction": 0.2427,
        "lst": 43.2
      },
      "geometry": {
        "type": "Polygon",
        "coordinates": [
          [
            [
              77.149418,
              28.527753
            ],
            [
              77.154418,
              28.527753
            ],
            [
              77.154418,
              28.532753
            ],
            [
              77.149418,
              28.532753
            ],
            [
              77.149418,
              28.527753
            ]
          ]
        ]
      }
    },
    {
      "type": "Feature",
      "properties": {
        "block_id": "DEL-0054",
        "block_name": "Unknown Block-54",
        "ward": "Unknown",
        "lat": 28.558671,
        "lon": 77.141577,
        "building_density": 0.0672,
        "green_cover": 0.1674,
        "road_density": 0.0053,
        "avg_building_height": 6.0,
        "distance_to_water": 15.12,
        "impervious_surface_fraction": 0.1041,
        "lst": 43.8
      },
      "geometry": {
        "type": "Polygon",
        "coordinates": [
          [
            [
              77.139077,
              28.556171
            ],
            [
              77.144077,
              28.556171
            ],
            [
              77.144077,
              28.561171
            ],
            [
              77.139077,
              28.561171
            ],
            [
              77.139077,
              28.556171
            ]
          ]
        ]
      }
    },
    {
      "type": "Feature",
      "properties": {
        "block_id": "DEL-0055",
        "block_name": "Aravalli Biodiversity Park Block-55",
        "ward": "Aravalli Biodiversity Park",
        "lat": 28.553675,
        "lon": 77.152471,
        "building_density": 0.0005,
        "green_cover": 0.1631,
        "road_density": 0.001,
        "avg_building_height": 12.7,
        "distance_to_water": 14.36,
        "impervious_surface_fraction": 0.02,
        "lst": 43.5
      },
      "geometry": {
        "type": "Polygon",
        "coordinates": [
          [
            [
              77.149971,
              28.551175
            ],
            [
              77.154971,
              28.551175
            ],
            [
              77.154971,
              28.556175
            ],
            [
              77.149971,
              28.556175
            ],
            [
              77.149971,
              28.551175
            ]
          ]
        ]
      }
    },
    {
      "type": "Feature",
      "properties": {
        "block_id": "DEL-0056",
        "block_name": "Institutional Area Block-56",
        "ward": "Institutional Area",
        "lat": 28.542474,
        "lon": 77.148426,
        "building_density": 0.1049,
        "green_cover": 0.1529,
        "road_density": 0.0053,
        "avg_building_height": 9.0,
        "distance_to_water": 15.21,
        "impervious_surface_fraction": 0.1422,
        "lst": 43.8
      },
      "geometry": {
        "type": "Polygon",
        "coordinates": [
          [
            [
              77.145926,
              28.539974
            ],
            [
              77.150926,
              28.539974
            ],
            [
              77.150926,
              28.544974
            ],
            [
              77.145926,
              28.544974
            ],
            [
              77.145926,
              28.539974
            ]
          ]
        ]
      }
    },
    {
      "type": "Feature",
      "properties": {
        "block_id": "DEL-0057",
        "block_name": "Harijan Basti Block-57",
        "ward": "Harijan Basti",
        "lat": 28.528168,
        "lon": 77.15783,
        "building_density": 0.0112,
        "green_cover": 0.1047,
        "road_density": 0.0332,
        "avg_building_height": 12.7,
        "distance_to_water": 15.01,
        "impervious_surface_fraction": 0.2436,
        "lst": 43.7
      },
      "geometry": {
        "type": "Polygon",
        "coordinates": [
          [
            [
              77.15533,
              28.525668
            ],
            [
              77.16033,
              28.525668
            ],
            [
              77.16033,
              28.530668
            ],
            [
              77.15533,
              28.530668
            ],
            [
              77.15533,
              28.525668
            ]
          ]
        ]
      }
    },
    {
      "type": "Feature",
      "properties": {
        "block_id": "DEL-0058",
        "block_name": "Sanjay Van Block-58",
        "ward": "Sanjay Van",
        "lat": 28.531736,
        "lon": 77.179079,
        "building_density": 0.0008,
        "green_cover": 0.2096,
        "road_density": 0.0,
        "avg_building_height": 12.7,
        "distance_to_water": 12.93,
        "impervious_surface_fraction": 0.02,
        "lst": 39.6
      },
      "geometry": {
        "type": "Polygon",
        "coordinates": [
          [
            [
              77.176579,
              28.529236
            ],
            [
              77.181579,
              28.529236
            ],
            [
              77.181579,
              28.534236
            ],
            [
              77.176579,
              28.534236
            ],
            [
              77.176579,
              28.529236
            ]
          ]
        ]
      }
    },
    {
      "type": "Feature",
      "properties": {
        "block_id": "DEL-0059",
        "block_name": "Unknown Block-59",
        "ward": "Unknown",
        "lat": 28.508967,
        "lon": 77.124841,
        "building_density": 0.0003,
        "green_cover": 0.1173,
        "road_density": 0.0005,
        "avg_building_height": 12.7,
        "distance_to_water": 18.63,
        "impervious_surface_fraction": 0.02,
        "lst": 46.9
      },
      "geometry": {
        "type": "Polygon",
        "coordinates": [
          [
            [
              77.122341,
              28.506467
            ],
            [
              77.127341,
              28.506467
            ],
            [
              77.127341,
              28.511467
            ],
            [
              77.122341,
              28.511467
            ],
            [
              77.122341,
              28.506467
            ]
          ]
        ]
      }
    },
    {
      "type": "Feature",
      "properties": {
        "block_id": "DEL-0060",
        "block_name": "Air India Colony Block-60",
        "ward": "Air India Colony",
        "lat": 28.557833,
        "lon": 77.156093,
        "building_density": 0.1335,
        "green_cover": 0.181,
        "road_density": 0.0,
        "avg_building_height": 12.7,
        "distance_to_water": 13.87,
        "impervious_surface_fraction": 0.1335,
        "lst": 42.3
      },
      "geometry": {
        "type": "Polygon",
        "coordinates": [
          [
            [
              77.153593,
              28.555333
            ],
            [
              77.158593,
              28.555333
            ],
            [
              77.158593,
              28.560333
            ],
            [
              77.153593,
              28.560333
            ],
            [
              77.153593,
              28.555333
            ]
          ]
        ]
      }
    },
    {
      "type": "Feature",
      "properties": {
        "block_id": "DEL-0061",
        "block_name": "Basant Gaon Block-61",
        "ward": "Basant Gaon",
        "lat": 28.571779,
        "lon": 77.158115,
        "building_density": 0.0121,
        "green_cover": 0.1033,
        "road_density": 0.0298,
        "avg_building_height": 12.7,
        "distance_to_water": 13.03,
        "impervious_surface_fraction": 0.2206,
        "lst": 42.9
      },
      "geometry": {
        "type": "Polygon",
        "coordinates": [
          [
            [
              77.155615,
              28.569279
            ],
            [
              77.160615,
              28.569279
            ],
            [
              77.160615,
              28.574279
            ],
            [
              77.155615,
              28.574279
            ],
            [
              77.155615,
              28.569279
            ]
          ]
        ]
      }
    },
    {
      "type": "Feature",
      "properties": {
        "block_id": "DEL-0062",
        "block_name": "Government Quarters Block-62",
        "ward": "Government Quarters",
        "lat": 28.555075,
        "lon": 77.162136,
        "building_density": 0.2336,
        "green_cover": 0.1711,
        "road_density": 0.0476,
        "avg_building_height": 12.0,
        "distance_to_water": 13.43,
        "impervious_surface_fraction": 0.5666,
        "lst": 41.8
      },
      "geometry": {
        "type": "Polygon",
        "coordinates": [
          [
            [
              77.159636,
              28.552575
            ],
            [
              77.164636,
              28.552575
            ],
            [
              77.164636,
              28.557575
            ],
            [
              77.159636,
              28.557575
            ],
            [
              77.159636,
              28.552575
            ]
          ]
        ]
      }
    },
    {
      "type": "Feature",
      "properties": {
        "block_id": "DEL-0063",
        "block_name": "RBI Colony Block-63",
        "ward": "RBI Colony",
        "lat": 28.559883,
        "lon": 77.152608,
        "building_density": 0.2597,
        "green_cover": 0.1802,
        "road_density": 0.0,
        "avg_building_height": 12.7,
        "distance_to_water": 14.1,
        "impervious_surface_fraction": 0.2597,
        "lst": 40.7
      },
      "geometry": {
        "type": "Polygon",
        "coordinates": [
          [
            [
              77.150108,
              28.557383
            ],
            [
              77.155108,
              28.557383
            ],
            [
              77.155108,
              28.562383
            ],
            [
              77.150108,
              28.562383
            ],
            [
              77.150108,
              28.557383
            ]
          ]
        ]
      }
    },
    {
      "type": "Feature",
      "properties": {
        "block_id": "DEL-0064",
        "block_name": "Vasant Enclave Block-64",
        "ward": "Vasant Enclave",
        "lat": 28.573062,
        "lon": 77.15944,
        "building_density": 0.2109,
        "green_cover": 0.1466,
        "road_density": 0.0311,
        "avg_building_height": 12.7,
        "distance_to_water": 12.86,
        "impervious_surface_fraction": 0.4289,
        "lst": 42.1
      },
      "geometry": {
        "type": "Polygon",
        "coordinates": [
          [
            [
              77.15694,
              28.570562
            ],
            [
              77.16194,
              28.570562
            ],
            [
              77.16194,
              28.575562
            ],
            [
              77.15694,
              28.575562
            ],
            [
              77.15694,
              28.570562
            ]
          ]
        ]
      }
    },
    {
      "type": "Feature",
      "properties": {
        "block_id": "DEL-0065",
        "block_name": "Lodhi Estate Block-65",
        "ward": "Lodhi Estate",
        "lat": 28.594911,
        "lon": 77.226191,
        "building_density": 0.1357,
        "green_cover": 0.2087,
        "road_density": 0.0009,
        "avg_building_height": 12.7,
        "distance_to_water": 5.94,
        "impervious_surface_fraction": 0.1421,
        "lst": 40.7
      },
      "geometry": {
        "type": "Polygon",
        "coordinates": [
          [
            [
              77.223691,
              28.592411
            ],
            [
              77.228691,
              28.592411
            ],
            [
              77.228691,
              28.597411
            ],
            [
              77.223691,
              28.597411
            ],
            [
              77.223691,
              28.592411
            ]
          ]
        ]
      }
    },
    {
      "type": "Feature",
      "properties": {
        "block_id": "DEL-0066",
        "block_name": "Shahbad Muhammadpur Block-66",
        "ward": "Shahbad Muhammadpur",
        "lat": 28.556111,
        "lon": 77.071173,
        "building_density": 0.122,
        "green_cover": 0.1041,
        "road_density": 0.0425,
        "avg_building_height": 12.7,
        "distance_to_water": 21.56,
        "impervious_surface_fraction": 0.4198,
        "lst": 45.5
      },
      "geometry": {
        "type": "Polygon",
        "coordinates": [
          [
            [
              77.068673,
              28.553611
            ],
            [
              77.073673,
              28.553611
            ],
            [
              77.073673,
              28.558611
            ],
            [
              77.068673,
              28.558611
            ],
            [
              77.068673,
              28.553611
            ]
          ]
        ]
      }
    },
    {
      "type": "Feature",
      "properties": {
        "block_id": "DEL-0067",
        "block_name": "East Sagarpur Block-67",
        "ward": "East Sagarpur",
        "lat": 28.600852,
        "lon": 77.104608,
        "building_density": 0.0134,
        "green_cover": 0.0852,
        "road_density": 0.0503,
        "avg_building_height": 12.7,
        "distance_to_water": 17.02,
        "impervious_surface_fraction": 0.3654,
        "lst": 43.2
      },
      "geometry": {
        "type": "Polygon",
        "coordinates": [
          [
            [
              77.102108,
              28.598352
            ],
            [
              77.107108,
              28.598352
            ],
            [
              77.107108,
              28.603352
            ],
            [
              77.102108,
              28.603352
            ],
            [
              77.102108,
              28.598352
            ]
          ]
        ]
      }
    },
    {
      "type": "Feature",
      "properties": {
        "block_id": "DEL-0068",
        "block_name": "Pkt 11 & 12 Block-68",
        "ward": "Pkt 11 & 12",
        "lat": 28.597826,
        "lon": 77.1019,
        "building_density": 0.0075,
        "green_cover": 0.1128,
        "road_density": 0.0152,
        "avg_building_height": 12.7,
        "distance_to_water": 17.38,
        "impervious_surface_fraction": 0.1139,
        "lst": 45.1
      },
      "geometry": {
        "type": "Polygon",
        "coordinates": [
          [
            [
              77.0994,
              28.595326
            ],
            [
              77.1044,
              28.595326
            ],
            [
              77.1044,
              28.600326
            ],
            [
              77.0994,
              28.600326
            ],
            [
              77.0994,
              28.595326
            ]
          ]
        ]
      }
    },
    {
      "type": "Feature",
      "properties": {
        "block_id": "DEL-0069",
        "block_name": "Brahmapuri Block-69",
        "ward": "Brahmapuri",
        "lat": 28.60525,
        "lon": 77.108475,
        "building_density": 0.0085,
        "green_cover": 0.0658,
        "road_density": 0.0128,
        "avg_building_height": 12.7,
        "distance_to_water": 16.51,
        "impervious_surface_fraction": 0.098,
        "lst": 44.0
      },
      "geometry": {
        "type": "Polygon",
        "coordinates": [
          [
            [
              77.105975,
              28.60275
            ],
            [
              77.110975,
              28.60275
            ],
            [
              77.110975,
              28.60775
            ],
            [
              77.105975,
              28.60775
            ],
            [
              77.105975,
              28.60275
            ]
          ]
        ]
      }
    },
    {
      "type": "Feature",
      "properties": {
        "block_id": "DEL-0070",
        "block_name": "Mohan Nagar Block-70",
        "ward": "Mohan Nagar",
        "lat": 28.606103,
        "lon": 77.106322,
        "building_density": 0.0,
        "green_cover": 0.0755,
        "road_density": 0.0647,
        "avg_building_height": 12.7,
        "distance_to_water": 16.68,
        "impervious_surface_fraction": 0.4528,
        "lst": 43.8
      },
      "geometry": {
        "type": "Polygon",
        "coordinates": [
          [
            [
              77.103822,
              28.603603
            ],
            [
              77.108822,
              28.603603
            ],
            [
              77.108822,
              28.608603
            ],
            [
              77.103822,
              28.608603
            ],
            [
              77.103822,
              28.603603
            ]
          ]
        ]
      }
    },
    {
      "type": "Feature",
      "properties": {
        "block_id": "DEL-0071",
        "block_name": "West Sagarpur Block-71",
        "ward": "West Sagarpur",
        "lat": 28.605223,
        "lon": 77.100485,
        "building_density": 0.0236,
        "green_cover": 0.0612,
        "road_density": 0.0683,
        "avg_building_height": 12.7,
        "distance_to_water": 17.25,
        "impervious_surface_fraction": 0.5019,
        "lst": 44.1
      },
      "geometry": {
        "type": "Polygon",
        "coordinates": [
          [
            [
              77.097985,
              28.602723
            ],
            [
              77.102985,
              28.602723
            ],
            [
              77.102985,
              28.607723
            ],
            [
              77.097985,
              28.607723
            ],
            [
              77.097985,
              28.602723
            ]
          ]
        ]
      }
    },
    {
      "type": "Feature",
      "properties": {
        "block_id": "DEL-0072",
        "block_name": "Unknown Block-72",
        "ward": "Unknown",
        "lat": 28.603911,
        "lon": 77.107423,
        "building_density": 0.0,
        "green_cover": 0.0682,
        "road_density": 0.0552,
        "avg_building_height": 12.7,
        "distance_to_water": 16.65,
        "impervious_surface_fraction": 0.3867,
        "lst": 44.3
      },
      "geometry": {
        "type": "Polygon",
        "coordinates": [
          [
            [
              77.104923,
              28.601411
            ],
            [
              77.109923,
              28.601411
            ],
            [
              77.109923,
              28.606411
            ],
            [
              77.104923,
              28.606411
            ],
            [
              77.104923,
              28.601411
            ]
          ]
        ]
      }
    },
    {
      "type": "Feature",
      "properties": {
        "block_id": "DEL-0073",
        "block_name": "Pusa Block-73",
        "ward": "Pusa",
        "lat": 28.636934,
        "lon": 77.158456,
        "building_density": 0.0439,
        "green_cover": 0.146,
        "road_density": 0.0012,
        "avg_building_height": 12.7,
        "distance_to_water": 10.96,
        "impervious_surface_fraction": 0.052,
        "lst": 45.0
      },
      "geometry": {
        "type": "Polygon",
        "coordinates": [
          [
            [
              77.155956,
              28.634434
            ],
            [
              77.160956,
              28.634434
            ],
            [
              77.160956,
              28.639434
            ],
            [
              77.155956,
              28.639434
            ],
            [
              77.155956,
              28.634434
            ]
          ]
        ]
      }
    },
    {
      "type": "Feature",
      "properties": {
        "block_id": "DEL-0074",
        "block_name": "Bapa Nagar Block-74",
        "ward": "Bapa Nagar",
        "lat": 28.606831,
        "lon": 77.236969,
        "building_density": 0.18,
        "green_cover": 0.1907,
        "road_density": 0.0,
        "avg_building_height": 12.7,
        "distance_to_water": 4.44,
        "impervious_surface_fraction": 0.18,
        "lst": 40.7
      },
      "geometry": {
        "type": "Polygon",
        "coordinates": [
          [
            [
              77.234469,
              28.604331
            ],
            [
              77.239469,
              28.604331
            ],
            [
              77.239469,
              28.609331
            ],
            [
              77.234469,
              28.609331
            ],
            [
              77.234469,
              28.604331
            ]
          ]
        ]
      }
    },
    {
      "type": "Feature",
      "properties": {
        "block_id": "DEL-0075",
        "block_name": "Kaka Nagar Block-75",
        "ward": "Kaka Nagar",
        "lat": 28.603319,
        "lon": 77.238748,
        "building_density": 0.1249,
        "green_cover": 0.2075,
        "road_density": 0.0437,
        "avg_building_height": 12.7,
        "distance_to_water": 4.43,
        "impervious_surface_fraction": 0.4307,
        "lst": 40.3
      },
      "geometry": {
        "type": "Polygon",
        "coordinates": [
          [
            [
              77.236248,
              28.600819
            ],
            [
              77.241248,
              28.600819
            ],
            [
              77.241248,
              28.605819
            ],
            [
              77.236248,
              28.605819
            ],
            [
              77.236248,
              28.600819
            ]
          ]
        ]
      }
    },
    {
      "type": "Feature",
      "properties": {
        "block_id": "DEL-0076",
        "block_name": "Ber Sarai Block-76",
        "ward": "Ber Sarai",
        "lat": 28.548488,
        "lon": 77.181466,
        "building_density": 0.0303,
        "green_cover": 0.1085,
        "road_density": 0.0303,
        "avg_building_height": 12.7,
        "distance_to_water": 12.03,
        "impervious_surface_fraction": 0.2423,
        "lst": 41.6
      },
      "geometry": {
        "type": "Polygon",
        "coordinates": [
          [
            [
              77.178966,
              28.545988
            ],
            [
              77.183966,
              28.545988
            ],
            [
              77.183966,
              28.550988
            ],
            [
              77.178966,
              28.550988
            ],
            [
              77.178966,
              28.545988
            ]
          ]
        ]
      }
    },
    {
      "type": "Feature",
      "properties": {
        "block_id": "DEL-0077",
        "block_name": "Inderpuri Extn Block-77",
        "ward": "Inderpuri Extn",
        "lat": 28.631939,
        "lon": 77.147508,
        "building_density": 0.2786,
        "green_cover": 0.0814,
        "road_density": 0.0137,
        "avg_building_height": 12.7,
        "distance_to_water": 12.1,
        "impervious_surface_fraction": 0.3748,
        "lst": 43.6
      },
      "geometry": {
        "type": "Polygon",
        "coordinates": [
          [
            [
              77.145008,
              28.629439
            ],
            [
              77.150008,
              28.629439
            ],
            [
              77.150008,
              28.634439
            ],
            [
              77.145008,
              28.634439
            ],
            [
              77.145008,
              28.629439
            ]
          ]
        ]
      }
    },
    {
      "type": "Feature",
      "properties": {
        "block_id": "DEL-0078",
        "block_name": "New Rajendra Nagar Block-78",
        "ward": "New Rajendra Nagar",
        "lat": 28.635054,
        "lon": 77.179215,
        "building_density": 0.266,
        "green_cover": 0.1386,
        "road_density": 0.0623,
        "avg_building_height": 8.0,
        "distance_to_water": 9.0,
        "impervious_surface_fraction": 0.7022,
        "lst": 41.6
      },
      "geometry": {
        "type": "Polygon",
        "coordinates": [
          [
            [
              77.176715,
              28.632554
            ],
            [
              77.181715,
              28.632554
            ],
            [
              77.181715,
              28.637554
            ],
            [
              77.176715,
              28.637554
            ],
            [
              77.176715,
              28.632554
            ]
          ]
        ]
      }
    },
    {
      "type": "Feature",
      "properties": {
        "block_id": "DEL-0079",
        "block_name": "Humayunpur Block-79",
        "ward": "Humayunpur",
        "lat": 28.561562,
        "lon": 77.194348,
        "building_density": 0.1982,
        "green_cover": 0.1117,
        "road_density": 0.0438,
        "avg_building_height": 16.3,
        "distance_to_water": 10.25,
        "impervious_surface_fraction": 0.5048,
        "lst": 41.2
      },
      "geometry": {
        "type": "Polygon",
        "coordinates": [
          [
            [
              77.191848,
              28.559062
            ],
            [
              77.196848,
              28.559062
            ],
            [
              77.196848,
              28.564062
            ],
            [
              77.191848,
              28.564062
            ],
            [
              77.191848,
              28.559062
            ]
          ]
        ]
      }
    },
    {
      "type": "Feature",
      "properties": {
        "block_id": "DEL-0080",
        "block_name": "Krishna Nagar Block-80",
        "ward": "Krishna Nagar",
        "lat": 28.563553,
        "lon": 77.193606,
        "building_density": 0.0706,
        "green_cover": 0.0905,
        "road_density": 0.0067,
        "avg_building_height": 12.7,
        "distance_to_water": 10.23,
        "impervious_surface_fraction": 0.1174,
        "lst": 41.8
      },
      "geometry": {
        "type": "Polygon",
        "coordinates": [
          [
            [
              77.191106,
              28.561053
            ],
            [
              77.196106,
              28.561053
            ],
            [
              77.196106,
              28.566053
            ],
            [
              77.191106,
              28.566053
            ],
            [
              77.191106,
              28.561053
            ]
          ]
        ]
      }
    },
    {
      "type": "Feature",
      "properties": {
        "block_id": "DEL-0081",
        "block_name": "Railway Colony Block-81",
        "ward": "Railway Colony",
        "lat": 28.638162,
        "lon": 77.213803,
        "building_density": 0.1974,
        "green_cover": 0.1438,
        "road_density": 0.0613,
        "avg_building_height": 12.7,
        "distance_to_water": 5.63,
        "impervious_surface_fraction": 0.6265,
        "lst": 42.3
      },
      "geometry": {
        "type": "Polygon",
        "coordinates": [
          [
            [
              77.211303,
              28.635662
            ],
            [
              77.216303,
              28.635662
            ],
            [
              77.216303,
              28.640662
            ],
            [
              77.211303,
              28.640662
            ],
            [
              77.211303,
              28.635662
            ]
          ]
        ]
      }
    },
    {
      "type": "Feature",
      "properties": {
        "block_id": "DEL-0082",
        "block_name": "Lajwanti Garden Block-82",
        "ward": "Lajwanti Garden",
        "lat": 28.613012,
        "lon": 77.107181,
        "building_density": 0.0272,
        "green_cover": 0.0839,
        "road_density": 0.0764,
        "avg_building_height": 13.2,
        "distance_to_water": 16.39,
        "impervious_surface_fraction": 0.5617,
        "lst": 43.2
      },
      "geometry": {
        "type": "Polygon",
        "coordinates": [
          [
            [
              77.104681,
              28.610512
            ],
            [
              77.109681,
              28.610512
            ],
            [
              77.109681,
              28.615512
            ],
            [
              77.104681,
              28.615512
            ],
            [
              77.104681,
              28.610512
            ]
          ]
        ]
      }
    },
    {
      "type": "Feature",
      "properties": {
        "block_id": "DEL-0083",
        "block_name": "New Delhi Railway Station Block-83",
        "ward": "New Delhi Railway Station",
        "lat": 28.641431,
        "lon": 77.220841,
        "building_density": 0.5087,
        "green_cover": 0.103,
        "road_density": 0.0,
        "avg_building_height": 4.8,
        "distance_to_water": 4.88,
        "impervious_surface_fraction": 0.5087,
        "lst": 45.4
      },
      "geometry": {
        "type": "Polygon",
        "coordinates": [
          [
            [
              77.218341,
              28.638931
            ],
            [
              77.223341,
              28.638931
            ],
            [
              77.223341,
              28.643931
            ],
            [
              77.218341,
              28.643931
            ],
            [
              77.218341,
              28.638931
            ]
          ]
        ]
      }
    },
    {
      "type": "Feature",
      "properties": {
        "block_id": "DEL-0084",
        "block_name": "Jahanuma Block-84",
        "ward": "Jahanuma",
        "lat": 28.639344,
        "lon": 77.206398,
        "building_density": 0.1412,
        "green_cover": 0.118,
        "road_density": 0.0126,
        "avg_building_height": 12.7,
        "distance_to_water": 6.31,
        "impervious_surface_fraction": 0.2293,
        "lst": 44.0
      },
      "geometry": {
        "type": "Polygon",
        "coordinates": [
          [
            [
              77.203898,
              28.636844
            ],
            [
              77.208898,
              28.636844
            ],
            [
              77.208898,
              28.641844
            ],
            [
              77.203898,
              28.641844
            ],
            [
              77.203898,
              28.636844
            ]
          ]
        ]
      }
    },
    {
      "type": "Feature",
      "properties": {
        "block_id": "DEL-0085",
        "block_name": "Nangal Raya Extn I Block-85",
        "ward": "Nangal Raya Extn I",
        "lat": 28.608394,
        "lon": 77.103953,
        "building_density": 0.0775,
        "green_cover": 0.099,
        "road_density": 0.0,
        "avg_building_height": 12.7,
        "distance_to_water": 16.83,
        "impervious_surface_fraction": 0.0775,
        "lst": 43.0
      },
      "geometry": {
        "type": "Polygon",
        "coordinates": [
          [
            [
              77.101453,
              28.605894
            ],
            [
              77.106453,
              28.605894
            ],
            [
              77.106453,
              28.610894
            ],
            [
              77.101453,
              28.610894
            ],
            [
              77.101453,
              28.605894
            ]
          ]
        ]
      }
    },
    {
      "type": "Feature",
      "properties": {
        "block_id": "DEL-0086",
        "block_name": "Nangal Raya Block-86",
        "ward": "Nangal Raya",
        "lat": 28.609867,
        "lon": 77.110468,
        "building_density": 0.0448,
        "green_cover": 0.0942,
        "road_density": 0.0312,
        "avg_building_height": 6.0,
        "distance_to_water": 16.17,
        "impervious_surface_fraction": 0.263,
        "lst": 43.6
      },
      "geometry": {
        "type": "Polygon",
        "coordinates": [
          [
            [
              77.107968,
              28.607367
            ],
            [
              77.112968,
              28.607367
            ],
            [
              77.112968,
              28.612367
            ],
            [
              77.107968,
              28.612367
            ],
            [
              77.107968,
              28.607367
            ]
          ]
        ]
      }
    },
    {
      "type": "Feature",
      "properties": {
        "block_id": "DEL-0087",
        "block_name": "Bhikaji Cama Place Block-87",
        "ward": "Bhikaji Cama Place",
        "lat": 28.568201,
        "lon": 77.186952,
        "building_density": 0.2756,
        "green_cover": 0.1331,
        "road_density": 0.0103,
        "avg_building_height": 20.0,
        "distance_to_water": 10.65,
        "impervious_surface_fraction": 0.3474,
        "lst": 42.6
      },
      "geometry": {
        "type": "Polygon",
        "coordinates": [
          [
            [
              77.184452,
              28.565701
            ],
            [
              77.189452,
              28.565701
            ],
            [
              77.189452,
              28.570701
            ],
            [
              77.184452,
              28.570701
            ],
            [
              77.184452,
              28.565701
            ]
          ]
        ]
      }
    },
    {
      "type": "Feature",
      "properties": {
        "block_id": "DEL-0088",
        "block_name": "Unknown Block-88",
        "ward": "Unknown",
        "lat": 28.551737,
        "lon": 77.061132,
        "building_density": 0.0152,
        "green_cover": 0.1382,
        "road_density": 0.0011,
        "avg_building_height": 12.7,
        "distance_to_water": 22.65,
        "impervious_surface_fraction": 0.023,
        "lst": 44.2
      },
      "geometry": {
        "type": "Polygon",
        "coordinates": [
          [
            [
              77.058632,
              28.549237
            ],
            [
              77.063632,
              28.549237
            ],
            [
              77.063632,
              28.554237
            ],
            [
              77.058632,
              28.554237
            ],
            [
              77.058632,
              28.549237
            ]
          ]
        ]
      }
    },
    {
      "type": "Feature",
      "properties": {
        "block_id": "DEL-0089",
        "block_name": "Salaria Enclave Block-89",
        "ward": "Salaria Enclave",
        "lat": 28.563527,
        "lon": 77.064965,
        "building_density": 0.2499,
        "green_cover": 0.1536,
        "road_density": 0.0,
        "avg_building_height": 12.7,
        "distance_to_water": 21.88,
        "impervious_surface_fraction": 0.2499,
        "lst": 44.5
      },
      "geometry": {
        "type": "Polygon",
        "coordinates": [
          [
            [
              77.062465,
              28.561027
            ],
            [
              77.067465,
              28.561027
            ],
            [
              77.067465,
              28.566027
            ],
            [
              77.062465,
              28.566027
            ],
            [
              77.062465,
              28.561027
            ]
          ]
        ]
      }
    },
    {
      "type": "Feature",
      "properties": {
        "block_id": "DEL-0090",
        "block_name": "Vivanta by TAJ Block-90",
        "ward": "Vivanta by TAJ",
        "lat": 28.557816,
        "lon": 77.062773,
        "building_density": 0.1767,
        "green_cover": 0.1423,
        "road_density": 0.0,
        "avg_building_height": 12.7,
        "distance_to_water": 22.28,
        "impervious_surface_fraction": 0.1767,
        "lst": 43.5
      },
      "geometry": {
        "type": "Polygon",
        "coordinates": [
          [
            [
              77.060273,
              28.555316
            ],
            [
              77.065273,
              28.555316
            ],
            [
              77.065273,
              28.560316
            ],
            [
              77.060273,
              28.560316
            ],
            [
              77.060273,
              28.555316
            ]
          ]
        ]
      }
    },
    {
      "type": "Feature",
      "properties": {
        "block_id": "DEL-0091",
        "block_name": "Unknown Block-91",
        "ward": "Unknown",
        "lat": 28.5616,
        "lon": 77.066389,
        "building_density": 0.1602,
        "green_cover": 0.1383,
        "road_density": 0.0,
        "avg_building_height": 12.7,
        "distance_to_water": 21.81,
        "impervious_surface_fraction": 0.1602,
        "lst": 43.8
      },
      "geometry": {
        "type": "Polygon",
        "coordinates": [
          [
            [
              77.063889,
              28.5591
            ],
            [
              77.068889,
              28.5591
            ],
            [
              77.068889,
              28.5641
            ],
            [
              77.063889,
              28.5641
            ],
            [
              77.063889,
              28.5591
            ]
          ]
        ]
      }
    },
    {
      "type": "Feature",
      "properties": {
        "block_id": "DEL-0092",
        "block_name": "Unknown Block-92",
        "ward": "Unknown",
        "lat": 28.642114,
        "lon": 77.138731,
        "building_density": 0.1654,
        "green_cover": 0.117,
        "road_density": 0.0,
        "avg_building_height": 12.7,
        "distance_to_water": 12.54,
        "impervious_surface_fraction": 0.1654,
        "lst": 45.0
      },
      "geometry": {
        "type": "Polygon",
        "coordinates": [
          [
            [
              77.136231,
              28.639614
            ],
            [
              77.141231,
              28.639614
            ],
            [
              77.141231,
              28.644614
            ],
            [
              77.136231,
              28.644614
            ],
            [
              77.136231,
              28.639614
            ]
          ]
        ]
      }
    },
    {
      "type": "Feature",
      "properties": {
        "block_id": "DEL-0093",
        "block_name": "Unknown Block-93",
        "ward": "Unknown",
        "lat": 28.63539,
        "lon": 77.133457,
        "building_density": 0.1319,
        "green_cover": 0.1025,
        "road_density": 0.0,
        "avg_building_height": 12.7,
        "distance_to_water": 13.29,
        "impervious_surface_fraction": 0.1319,
        "lst": 44.9
      },
      "geometry": {
        "type": "Polygon",
        "coordinates": [
          [
            [
              77.130957,
              28.63289
            ],
            [
              77.135957,
              28.63289
            ],
            [
              77.135957,
              28.63789
            ],
            [
              77.130957,
              28.63789
            ],
            [
              77.130957,
              28.63289
            ]
          ]
        ]
      }
    },
    {
      "type": "Feature",
      "properties": {
        "block_id": "DEL-0094",
        "block_name": "Unknown Block-94",
        "ward": "Unknown",
        "lat": 28.634371,
        "lon": 77.124945,
        "building_density": 0.1,
        "green_cover": 0.1857,
        "road_density": 0.0,
        "avg_building_height": 12.7,
        "distance_to_water": 14.1,
        "impervious_surface_fraction": 0.1,
        "lst": 42.5
      },
      "geometry": {
        "type": "Polygon",
        "coordinates": [
          [
            [
              77.122445,
              28.631871
            ],
            [
              77.127445,
              28.631871
            ],
            [
              77.127445,
              28.636871
            ],
            [
              77.122445,
              28.636871
            ],
            [
              77.122445,
              28.631871
            ]
          ]
        ]
      }
    },
    {
      "type": "Feature",
      "properties": {
        "block_id": "DEL-0095",
        "block_name": "Unknown Block-95",
        "ward": "Unknown",
        "lat": 28.583096,
        "lon": 77.177438,
        "building_density": 0.1798,
        "green_cover": 0.198,
        "road_density": 0.0347,
        "avg_building_height": 12.7,
        "distance_to_water": 10.8,
        "impervious_surface_fraction": 0.4228,
        "lst": 41.1
      },
      "geometry": {
        "type": "Polygon",
        "coordinates": [
          [
            [
              77.174938,
              28.580596
            ],
            [
              77.179938,
              28.580596
            ],
            [
              77.179938,
              28.585596
            ],
            [
              77.174938,
              28.585596
            ],
            [
              77.174938,
              28.580596
            ]
          ]
        ]
      }
    }
  ]
}